0 IRIDIUM 33 DEB
1 33875U 97051AU  13282.12650700  .00004807  00000-0  11328-2 0  4277
2 33875 086.4147 118.2534 0042719 356.2650 142.8862 14.53560756246153
0 IRIDIUM 33 DEB
1 33875U 97051AU  13283.47935271  .00005513  00000-0  12997-2 0  4284
2 33875 086.4148 117.6730 0042624 351.7063 022.1094 14.53572111246355
0 IRIDIUM 33 DEB
1 33875U 97051AU  13286.11854103  .00004590  00000-0  10810-2 0  4301
2 33875 086.4144 116.5406 0042257 342.6868 152.8315 14.53591472246733
0 IRIDIUM 33 DEB
1 33875U 97051AU  13287.48144421  .00005175  00000-0  12194-2 0  4315
2 33875 086.4138 115.9558 0042099 338.0156 084.9180 14.53601229246939
0 IRIDIUM 33 DEB
1 33875U 97051AU  13288.51233743  .00007521  00000-0  17733-2 0  4328
2 33875 086.4135 115.5133 0042008 334.5760 079.5442 14.53617006247081
0 IRIDIUM 33 DEB
1 33875U 97051AU  13289.61675691  .00007533  00000-0  17759-2 0  4334
2 33875 086.4133 115.0393 0041904 330.7127 099.1678 14.53627363247245
0 IRIDIUM 33 DEB
1 33875U 97051AU  13291.07669299  .00006026  00000-0  14196-2 0  4343
2 33875 086.4132 114.4125 0041747 325.6754 179.2693 14.53644831247453
0 IRIDIUM 33 DEB
1 33875U 97051AU  13292.50492562  .00006324  00000-0  14895-2 0  4357
2 33875 086.4133 113.7997 0041675 320.7291 093.5650 14.53660058247668
0 IRIDIUM 33 DEB
1 33875U 97051AU  13293.81464418  .00007033  00000-0  16565-2 0  4366
2 33875 086.4137 113.2376 0041529 316.1393 107.7708 14.53671098247857
0 IRIDIUM 33 DEB
1 33875U 97051AU  13295.00448152  .00006903  00000-0  16256-2 0  4379
2 33875 086.4141 112.7269 0041439 312.0041 214.6104 14.53683544248029
0 IRIDIUM 33 DEB
1 33875U 97051AU  13296.02811817  .00007317  00000-0  17229-2 0  4386
2 33875 086.4143 112.2876 0041402 308.4164 171.7358 14.53696009248175
